0 FENGYUN 1C DEB
1 29878U 99025FY  13281.53050186  .00002295  00000-0  99345-3 0  7610
2 29878 096.9954 135.4093 0144641 276.5650 150.7112 14.19564303347629
0 FENGYUN 1C DEB
1 29878U 99025FY  13283.09812793  .00003332  00000-0  14357-2 0  7626
2 29878 096.9956 136.6497 0144530 271.8005 242.0385 14.19578394347847
0 FENGYUN 1C DEB
1 29878U 99025FY  13284.14867959  .00003812  00000-0  16404-2 0  7636
2 29878 096.9956 137.4815 0144437 268.6290 210.8841 14.19583581347996
0 FENGYUN 1C DEB
1 29878U 99025FY  13286.53381362  .00003250  00000-0  14005-2 0  7653
2 29878 096.9954 139.3691 0144274 261.4420 160.1815 14.19597962348337
0 FENGYUN 1C DEB
1 29878U 99025FY  13288.16766435  .00005183  00000-0  22252-2 0  7663
2 29878 096.9945 140.6630 0144056 256.4774 230.1394 14.19613031348560
0 FENGYUN 1C DEB
1 29878U 99025FY  13289.42555417  .00005021  00000-0  21560-2 0  7672
2 29878 096.9944 141.6580 0144065 252.6581 178.7783 14.19620981348749
0 FENGYUN 1C DEB
1 29878U 99025FY  13290.54478444  .00005428  00000-0  23291-2 0  7686
2 29878 096.9940 142.5439 0144001 249.2631 138.8016 14.19629222348907
0 FENGYUN 1C DEB
1 29878U 99025FY  13292.11389874  .00003985  00000-0  17137-2 0  7698
2 29878 096.9937 143.7859 0143877 244.4925 238.1082 14.19643482349121
0 FENGYUN 1C DEB
1 29878U 99025FY  13293.17095417  .00004209  00000-0  18091-2 0  7704
2 29878 096.9937 144.6225 0143808 241.2789 240.4682 14.19651897349272
0 FENGYUN 1C DEB
1 29878U 99025FY  13294.56716678  .00005437  00000-0  23323-2 0  7716
2 29878 096.9937 145.7277 0143709 237.0382 176.2239 14.19660840349477
